satname,norad_id,inclination_deg,eccentricity,mean_motion_rev_per_day,perigee_km,apogee_km,l1,l2
STARLINK-1284,45390,53.0556,0.0001433,15.06423546,546.1470016722706,548.1317858867278,1 45390U 20019AG  26002.73767806  .00001344  00000+0  10904-3 0  9995,2 45390  53.0556  82.6898 0001433  91.2233 268.8920 15.06423546320061
STARLINK-1297,45395,53.0558,0.0001608,15.06400476,546.0965032536888,548.3236948807489,1 45395U 20019AM  26002.50916330  .00017896  00000+0  12172-2 0  9990,2 45395  53.0558  83.7158 0001608  92.5953 267.5220 15.06400476319217
STARLINK-1307,45397,53.0562,0.0001406,15.06398782,546.2415864032628,548.1889954674743,1 45397U 20019AP  26002.63450530  .00014472  00000+0  98848-3 0  9993,2 45397  53.0562  83.1526 0001406  80.1322 279.9826 15.06398782319873
STARLINK-1255,45399,53.0482,0.0003139,15.41035245,440.91151814741625,445.19386103454235,1 45399U 20019AR  26002.42301317  .00092434  00000+0  21880-2 0  9995,2 45399  53.0482  58.8071 0003139  38.2321 321.8905 15.41035245320180
STARLINK-1260,45404,53.0565,0.0001329,15.06395387,546.3053154526442,548.1460768572824,1 45404U 20019AW  26002.50271602  .00002596  00000+0  19313-3 0  9993,2 45404  53.0565  73.7418 0001329  90.4346 269.6795 15.06395387319884
STARLINK-1263,45405,53.0551,0.0001905,15.06397761,545.8991399517618,548.5377003668418,1 45405U 20019AX  26002.62067524  .00012566  00000+0  86105-3 0  9994,2 45405  53.0551  73.2161 0001905  92.0973 268.0235 15.06397761319907
STARLINK-1265,45406,53.056,0.0001465,15.06400781,546.1946010737283,548.2237274998643,1 45406U 20019AY  26002.42899734  .00007953  00000+0  55216-3 0  9992,2 45406  53.0560  74.0770 0001465  83.2694 276.8462 15.06400781319878
STARLINK-1278,45408,53.0497,0.0003746,15.43426114,433.45397588015294,438.5591322308519,1 45408U 20019BA  26002.91668980  .00072646  00000+0  15936-2 0  9990,2 45408  53.0497  85.6155 0003746 256.6942 128.3002 15.43426114  5940
STARLINK-1296,45412,53.0567,0.0001648,15.06389778,546.1015844678086,548.3841896785889,1 45412U 20019BE  26002.49902669  .00004465  00000+0  31851-3 0  9992,2 45412  53.0567  73.7583 0001648  83.0950 277.0227 15.06389778319881
STARLINK-1298,45413,53.0425,0.0005118,15.67178147,363.5295452030059,370.4338487012046,1 45413U 20019BF  26002.91668980  .00169409  00000+0  15240-2 0  9998,2 45413  53.0425  24.2727 0005118  76.4549 290.7947 15.67178147  5934
STARLINK-1309,45414,53.0556,0.0001279,15.06398467,546.3305036849806,548.1020090479597,1 45414U 20019BG  26002.51377422  .00006456  00000+0  45194-3 0  9997,2 45414  53.0556  73.6946 0001279  94.9892 265.1243 15.06398467319879
STARLINK-1316,45415,53.056,0.0001535,15.0638989,546.1794980454933,548.3055895654416,1 45415U 20019BH  26002.40688586  .00004690  00000+0  33365-3 0  9997,2 45415  53.0560  74.1801 0001535  88.7392 271.3773 15.06389890319891
STARLINK-1318,45416,53.0445,0.0004527,15.74290853,343.6055880063532,349.6942100647402,1 45416U 20019BJ  26002.91668980  .00231942  00000+0  15373-2 0  9990,2 45416  53.0445  12.5241 0004527  57.5957 211.0330 15.74290853  5902
STARLINK-1286,45417,53.0524,0.000183,15.43937344,433.25555425402854,435.74898022583875,1 45417U 20019BK  26002.55240768  .00039658  00000+0  86298-3 0  9996,2 45417  53.0524  87.0574 0001830 286.1602  73.9201 15.43937344319985
STARLINK-1308,45419,53.0553,0.0001653,15.06413876,546.0242772364227,548.3137834100471,1 45419U 20019BM  26002.70635002  .00003607  00000+0  26085-3 0  9997,2 45419  53.0553 102.8271 0001653  86.7760 273.3418 15.06413876319525
STARLINK-1329,45531,53.0541,0.0003251,15.43764935,432.7945314978879,437.22443934270814,1 45531U 20025A   26002.91668980  .00157115  00000+0  33599-2 0  9994,2 45531  53.0541  36.7103 0003251  34.3692 327.2089 15.43764935  5841
STARLINK-1338,45532,53.0703,0.0001493,15.41747706,439.9329995082644,441.96917921174736,1 45532U 20025B   26002.91668980  .00059383  00000+0  13823-2 0  9991,2 45532  53.0703  39.4510 0001493  79.0284 262.0573 15.41747706  5842
STARLINK-1350,45535,53.0746,0.0002011,15.34235981,461.8149916533994,464.56657368758806,1 45535U 20025E   26002.32130336  .00019594  00000+0  59255-3 0  9998,2 45535  53.0746 344.3918 0002011  84.3823 275.7408 15.34235981315961
STARLINK-1362,45538,53.056,9.35e-05,15.06404777,546.5493984387276,547.8444358812367,1 45538U 20025H   26002.51923691  .00000111  00000+0  26358-4 0  9990,2 45538  53.0560  43.3887 0000935 134.1490 225.9577 15.06404777315128
STARLINK-1368,45540,53.0554,0.0001524,15.0639367,546.1755324676451,548.2863846214095,1 45540U 20025K   26002.39121231  .00001145  00000+0  95795-4 0  9998,2 45540  53.0554  44.2446 0001524  96.1737 263.9426 15.06393670315091
STARLINK-1371,45542,53.0534,0.0001201,15.26476002,485.5324297076695,487.18128113174134,1 45542U 20025M   26002.91668980  .01765086  00000+0  60993-1 0  9996,2 45542  53.0534  41.1284 0001201  85.9451  74.1208 15.26476002  5637
STARLINK-1372,45543,53.0564,0.0001585,15.0639493,546.1294265923016,548.3247670109877,1 45543U 20025N   26002.39858514  .00000444  00000+0  48705-4 0  9992,2 45543  53.0564  44.2089 0001585  91.6528 268.4643 15.06394930314194
STARLINK-1373,45544,53.0561,0.0001304,15.22498064,497.41186412968364,499.2052411298091,1 45544U 20025P   26002.91668980  .01074561  00000+0  42404-1 0  9996,2 45544  53.0561  41.4201 0001304  88.6541 341.7068 15.22498064  5843
STARLINK-1294,45551,53.0435,0.0003151,15.73263318,347.45775438057444,351.69756015758503,1 45551U 20025W   26002.91668980  .00152899  00000+0  10709-2 0  9998,2 45551  53.0435 308.0164 0003151 142.0183 117.3879 15.73263318  6026
STARLINK-1325,45554,53.0467,0.0009738,15.87118174,303.85384284418797,316.88037344520944,1 45554U 20025Z   26002.91668980  .00303836  00000+0  11041-2 0  9990,2 45554  53.0467 297.4040 0009738 108.2229 290.8389 15.87118174  5981
STARLINK-1327,45555,53.0534,0.0001138,15.307864,472.6850313917357,474.2444559485966,1 45555U 20025AA  26002.91668980  .01627068  00000+0  48931-1 0  9995,2 45555  53.0534  20.7948 0001138  89.7601  91.6734 15.30786400  5784
STARLINK-1356,45564,53.0564,0.0001543,15.06406154,546.1241185065974,548.261275251054,1 45564U 20025AK  26002.45940240  .00005694  00000+0  40075-3 0  9993,2 45564  53.0564  23.9384 0001543  84.1939 275.9226 15.06406154315380
STARLINK-1357,45565,53.0596,0.0002741,15.43267645,434.60513078811437,438.34089999855314,1 45565U 20025AL  26002.91668980  .00154961  00000+0  33710-2 0  9992,2 45565  53.0596 353.0653 0002741  51.9048  39.2387 15.43267645  5876
STARLINK-1361,45567,53.0575,0.0001101,15.06399686,546.4500393210346,547.9750012854047,1 45567U 20025AN  26002.34513886  .00003687  00000+0  26625-3 0  9991,2 45567  53.0575  24.4514 0001101  87.1217 272.9898 15.06399686315370
STARLINK-1363,45568,53.0512,0.0008297,15.53212746,401.72301634013365,412.98285834215676,1 45568U 20025AP  26002.01007280  .00050472  00000+0  79064-3 0  9991,2 45568  53.0512   5.5187 0008297 355.7456   4.3481 15.53212746315604
STARLINK-1366,45569,53.0499,0.0009461,15.51325172,406.43102390727927,419.28094082851476,1 45569U 20025AQ  26002.91668980  .00180307  00000+0  29527-2 0  9990,2 45569  53.0499   1.6837 0009461  17.2329  44.8646 15.51325172  5896
STARLINK-1376,45570,53.0553,0.0001345,15.06396443,546.2909988051033,548.1539204997489,1 45570U 20025AR  26002.20875686  .00001339  00000+0  10878-3 0  9994,2 45570  53.0553  25.0635 0001345  87.2692 272.8451 15.06396443315348
STARLINK-1320,45572,53.0553,0.0006794,15.54328066,399.498705918606,408.7144184709168,1 45572U 20025AT  26002.91668980  .00097998  00000+0  14594-2 0  9995,2 45572  53.0553 306.7693 0006794 113.8892  97.6079 15.54328066  5900
STARLINK-1321,45573,53.0592,0.0001607,15.31651859,469.78286720520737,471.98414239545036,1 45573U 20025AU  26002.91668980  .00334833  00000+0  10341-1 0  9993,2 45573  53.0592  10.6325 0001607  79.9285 161.4625 15.31651859  5780
STARLINK-1328,45576,53.045,0.000192,16.02756967,265.51180047808975,268.06345153447637,1 45576U 20025AX  26002.24048163  .00685948  23316-3  11190-2 0  9996,2 45576  53.0450 316.9572 0001920 161.1246 198.9856 16.02756967316311
STARLINK-1331,45578,53.0571,0.0001191,15.06402495,546.379103030662,548.0287192356936,1 45578U 20025AZ  26002.30551007  .00001317  00000+0  10726-3 0  9999,2 45578  53.0571  14.6307 0001191  73.0120 287.0999 15.06402495315513
STARLINK-1333,45580,53.0555,0.0001484,15.06402589,546.1759024890671,548.2313435859851,1 45580U 20025BB  26002.77639337  .00000659  00000+0  63129-4 0  9990,2 45580  53.0555  22.5130 0001484  92.5478 267.5681 15.06402589315433
STARLINK-1335,45581,53.0562,0.0001242,15.06398386,546.3563757149614,548.0766335255084,1 45581U 20025BC  26002.44926592 -.00002619  00000+0 -15703-3 0  9991,2 45581  53.0562  13.9849 0001242  96.5599 263.5531 15.06398386315522
STARLINK-1337,45582,53.0575,0.0001513,15.06397562,546.1712236998692,548.2668364345673,1 45582U 20025BD  26002.40503962  .00000236  00000+0  34750-4 0  9995,2 45582  53.0575  14.1865 0001513 102.1982 257.9177 15.06397562315516
STARLINK-1347,45586,53.0524,0.0003393,15.41982328,437.94587941694226,442.57284318772327,1 45586U 20025BH  26002.91668980  .00145135  00000+0  33008-2 0  9998,2 45586  53.0524 343.9798 0003393  64.8561 155.2267 15.41982328  5938
STARLINK-1364,45589,53.054,0.0001301,15.06403393,546.3001724070045,548.1021453959502,1 45589U 20025BL  26002.40872091  .00001368  00000+0  11068-3 0  9997,2 45589  53.0540  14.1665 0001301  93.4277 266.6861 15.06403393315514
STARLINK-1365,45590,53.0566,0.0001101,15.06393686,546.4684264996504,547.9933925133237,1 45590U 20025BM  26002.82247104  .00000976  00000+0  84406-4 0  9997,2 45590  53.0566  42.3052 0001101  81.7141 278.3972 15.06393686315173
STARLINK-1443,45660,53.0549,0.0001553,15.06390788,546.1642805196598,548.315302551111,1 45660U 20035D   26002.40964644 -.00001443  00000+0 -78044-4 0  9998,2 45660  53.0549   4.1602 0001553 108.5249 251.5909 15.06390788308745
